{"type": "FeatureCollection", "features": [ {"type": "Feature", "properties": {"norad_id": 35018, "name": "COSMOS 2251 DEB", "group": "cosmos-2251-debris", "lat": 68.08244957707578, "lon": 153.71942239566596, "alt_km": 859.3246657876725, "timestamp": "2025-12-13T20:38:51.403689+00:00", "meta": {"OBJECT_NAME": "COSMOS 2251 DEB", "OBJECT_ID": "1993-036AGF", "EPOCH": "2025-12-11T15:37:13.751904", "MEAN_MOTION": 13.67111419, "ECCENTRICITY": 0.03485154, "INCLINATION": 73.9756, "RA_OF_ASC_NODE": 111.7752, "ARG_OF_PERICENTER": 21.1953, "MEAN_ANOMALY": 340.32, "EPHEMERIS_TYPE": 0, "CLASSIFICATION_TYPE": "U", "NORAD_CAT_ID": 35018, "ELEMENT_SET_NO": 999, "REV_AT_EPOCH": 83171, "BSTAR": 0.0010764193, "MEAN_MOTION_DOT": 1.351e-05, "MEAN_MOTION_DDOT": 0}, "tle": {"line1": "1 35018U 93036AGF 25345.65085361  .00001351  00000+0  10764-2 0  9990", "line2": "2 35018  73.9756 111.7752 0348515  21.1953 340.3200 13.67111419831713"}}, "geometry": {"type": "Point", "coordinates": [153.71942239566596, 68.08244957707578]}}, {"type": "Feature", "properties": {"norad_id": 35020, "name": "COSMOS 2251 DEB", "group": "cosmos-2251-debris", "lat": 73.63775222788804, "lon": -60.18096784841182, "alt_km": 727.949059082156, "timestamp": "2025-12-13T20:38:51.403700+00:00", "meta": {"OBJECT_NAME": "COSMOS 2251 DEB", "OBJECT_ID": "1993-036AGH", "EPOCH": "2025-12-11T00:55:30.154944", "MEAN_MOTION": 14.62800781, "ECCENTRICITY": 0.00911638, "INCLINATION": 74.0465, "RA_OF_ASC_NODE": 202.2067, "ARG_OF_PERICENTER": 316.7345, "MEAN_ANOMALY": 42.6686, "EPHEMERIS_TYPE": 0, "CLASSIFICATION_TYPE": "U", "NORAD_CAT_ID": 35020, "ELEMENT_SET_NO": 999, "REV_AT_EPOCH": 88213, "BSTAR": 0.00021287557, "MEAN_MOTION_DOT": 1.119e-05, "MEAN_MOTION_DDOT": 0}, "tle": {"line1": "1 35020U 93036AGH 25345.03854346  .00001119  00000+0  21288-3 0  9998", "line2": "2 35020  74.0465 202.2067 0091163 316.7345  42.6686 14.62800781882137"}}, "geometry": {"type": "Point", "coordinates": [-60.18096784841182, 73.63775222788804]}}, {"type": "Feature", "properties": {"norad_id": 35022, "name": "COSMOS 2251 DEB", "group": "cosmos-2251-debris", "lat": 41.35197738762531, "lon": 125.18697575921016, "alt_km": 656.3524908550935, "timestamp": "2025-12-13T20:38:51.403710+00:00", "meta": {"OBJECT_NAME": "COSMOS 2251 DEB", "OBJECT_ID": "1993-036AGK", "EPOCH": "2025-12-13T05:13:57.662400", "MEAN_MOTION": 14.60837478, "ECCENTRICITY": 0.0046712, "INCLINATION": 74.027, "RA_OF_ASC_NODE": 321.0157, "ARG_OF_PERICENTER": 160.7874, "MEAN_ANOMALY": 199.5067, "EPHEMERIS_TYPE": 0, "CLASSIFICATION_TYPE": "U", "NORAD_CAT_ID": 35022, "ELEMENT_SET_NO": 999, "REV_AT_EPOCH": 59150, "BSTAR": 0.00067238306, "MEAN_MOTION_DOT": 3.308e-05, "MEAN_MOTION_DDOT": 0}, "tle": {"line1": "1 35022U 93036AGK 25347.21802850  .00003308  00000+0  67238-3 0  9992", "line2": "2 35022  74.0270 321.0157 0046712 160.7874 199.5067 14.60837478591501"}}, "geometry": {"type": "Point", "coordinates": [125.18697575921016, 41.35197738762531]}}, {"type": "Feature", "properties": {"norad_id": 35023, "name": "COSMOS 2251 DEB", "group": "cosmos-2251-debris", "lat": 74.02607840832813, "lon": -60.38925208768575, "alt_km": 596.938752798178, "timestamp": "2025-12-13T20:38:51.403720+00:00", "meta": {"OBJECT_NAME": "COSMOS 2251 DEB", "OBJECT_ID": "1993-036AGL", "EPOCH": "2025-12-12T23:39:40.178880", "MEAN_MOTION": 14.95116254, "ECCENTRICITY": 0.00340101, "INCLINATION": 74.0376, "RA_OF_ASC_NODE": 212.0898, "ARG_OF_PERICENTER": 289.8991, "MEAN_ANOMALY": 135.136, "EPHEMERIS_TYPE": 0, "CLASSIFICATION_TYPE": "U", "NORAD_CAT_ID": 35023, "ELEMENT_SET_NO": 999, "REV_AT_EPOCH": 88283, "BSTAR": 0.0021878983, "MEAN_MOTION_DOT": 0.00024322, "MEAN_MOTION_DDOT": 0}, "tle": {"line1": "1 35023U 93036AGL 25346.98588170  .00024322  00000+0  21879-2 0  9991", "line2": "2 35023  74.0376 212.0898 0034010 289.8991 135.1360 14.95116254882832"}}, "geometry": {"type": "Point", "coordinates": [-60.38925208768575, 74.02607840832813]}}, {"type": "Feature", "properties": {"norad_id": 35025, "name": "COSMOS 2251 DEB", "group": "cosmos-2251-debris", "lat": 68.18648638446665, "lon": 106.77087380817245, "alt_km": 657.1606010689902, "timestamp": "2025-12-13T20:38:51.403731+00:00", "meta": {"OBJECT_NAME": "COSMOS 2251 DEB", "OBJECT_ID": "1993-036AGN", "EPOCH": "2025-12-12T21:29:10.280832", "MEAN_MOTION": 14.72710298, "ECCENTRICITY": 0.00851917, "INCLINATION": 73.9386, "RA_OF_ASC_NODE": 62.6223, "ARG_OF_PERICENTER": 335.4034, "MEAN_ANOMALY": 24.3084, "EPHEMERIS_TYPE": 0, "CLASSIFICATION_TYPE": "U", "NORAD_CAT_ID": 35025, "ELEMENT_SET_NO": 999, "REV_AT_EPOCH": 88645, "BSTAR": 0.00059100311, "MEAN_MOTION_DOT": 3.96e-05, "MEAN_MOTION_DDOT": 0}, "tle": {"line1": "1 35025U 93036AGN 25346.89525788  .00003960  00000+0  59100-3 0  9993", "line2": "2 35025  73.9386  62.6223 0085191 335.4034  24.3084 14.72710298886453"}}, "geometry": {"type": "Point", "coordinates": [106.77087380817245, 68.18648638446665]}}, {"type": "Feature", "properties": {"norad_id": 35026, "name": "COSMOS 2251 DEB", "group": "cosmos-2251-debris", "lat": -45.39450987920821, "lon": 153.54580738273225, "alt_km": 774.2344470052649, "timestamp": "2025-12-13T20:38:51.403741+00:00", "meta": {"OBJECT_NAME": "COSMOS 2251 DEB", "OBJECT_ID": "1993-036AGP", "EPOCH": "2025-12-13T06:41:51.254880", "MEAN_MOTION": 14.53623986, "ECCENTRICITY": 0.00823222, "INCLINATION": 74.0467, "RA_OF_ASC_NODE": 317.7836, "ARG_OF_PERICENTER": 71.0972, "MEAN_ANOMALY": 355.7631, "EPHEMERIS_TYPE": 0, "CLASSIFICATION_TYPE": "U", "NORAD_CAT_ID": 35026, "ELEMENT_SET_NO": 999, "REV_AT_EPOCH": 88151, "BSTAR": 0.0001179875, "MEAN_MOTION_DOT": 4.86e-06, "MEAN_MOTION_DDOT": 0}, "tle": {"line1": "1 35026U 93036AGP 25347.27906545  .00000486  00000+0  11799-3 0  9993", "line2": "2 35026  74.0467 317.7836 0082322  71.0972 355.7631 14.53623986881514"}}, "geometry": {"type": "Point", "coordinates": [153.54580738273225, -45.39450987920821]}}, {"type": "Feature", "properties": {"norad_id": 35028, "name": "COSMOS 2251 DEB", "group": "cosmos-2251-debris", "lat": -8.713956198969006, "lon": -93.66016026330844, "alt_km": 671.0653136800347, "timestamp": "2025-12-13T20:38:51.403752+00:00", "meta": {"OBJECT_NAME": "COSMOS 2251 DEB", "OBJECT_ID": "1993-036AGR", "EPOCH": "2025-12-13T04:31:14.272896", "MEAN_MOTION": 14.56570709, "ECCENTRICITY": 0.00824622, "INCLINATION": 74.0384, "RA_OF_ASC_NODE": 270.1287, "ARG_OF_PERICENTER": 43.6868, "MEAN_ANOMALY": 26.0271, "EPHEMERIS_TYPE": 0, "CLASSIFICATION_TYPE": "U", "NORAD_CAT_ID": 35028, "ELEMENT_SET_NO": 999, "REV_AT_EPOCH": 88292, "BSTAR": 0.0001683276, "MEAN_MOTION_DOT": 7.54e-06, "MEAN_MOTION_DDOT": 0}, "tle": {"line1": "1 35028U 93036AGR 25347.18835964  .00000754  00000+0  16833-3 0  9993", "line2": "2 35028  74.0384 270.1287 0082462  43.6868  26.0271 14.56570709882921"}}, "geometry": {"type": "Point", "coordinates": [-93.66016026330844, -8.713956198969006]}}, {"type": "Feature", "properties": {"norad_id": 35031, "name": "COSMOS 2251 DEB", "group": "cosmos-2251-debris", "lat": -9.132170589263655, "lon": 79.8386349451368, "alt_km": 780.4498408275776, "timestamp": "2025-12-13T20:38:51.403763+00:00", "meta": {"OBJECT_NAME": "COSMOS 2251 DEB", "OBJECT_ID": "1993-036AGU", "EPOCH": "2025-12-08T11:13:55.739136", "MEAN_MOTION": 14.3828637, "ECCENTRICITY": 0.00186752, "INCLINATION": 74.0383, "RA_OF_ASC_NODE": 267.1323, "ARG_OF_PERICENTER": 1.498, "MEAN_ANOMALY": 358.6226, "EPHEMERIS_TYPE": 0, "CLASSIFICATION_TYPE": "U", "NORAD_CAT_ID": 35031, "ELEMENT_SET_NO": 999, "REV_AT_EPOCH": 65222, "BSTAR": 0.00036337037, "MEAN_MOTION_DOT": 1.081e-05, "MEAN_MOTION_DDOT": 0}, "tle": {"line1": "1 35031U 93036AGU 25342.46800624  .00001081  00000+0  36337-3 0  9993", "line2": "2 35031  74.0383 267.1323 0018675   1.4980 358.6226 14.38286370652223"}}, "geometry": {"type": "Point", "coordinates": [79.8386349451368, -9.132170589263655]}}, {"type": "Feature", "properties": {"norad_id": 35032, "name": "COSMOS 2251 DEB", "group": "cosmos-2251-debris", "lat": 41.35185034546508, "lon": 170.3475958539481, "alt_km": 684.6464766344579, "timestamp": "2025-12-13T20:38:51.403774+00:00", "meta": {"OBJECT_NAME": "COSMOS 2251 DEB", "OBJECT_ID": "1993-036AGV", "EPOCH": "2025-12-12T09:44:51.253728", "MEAN_MOTION": 14.58721339, "ECCENTRICITY": 0.00684021, "INCLINATION": 73.8524, "RA_OF_ASC_NODE": 7.9202, "ARG_OF_PERICENTER": 219.308, "MEAN_ANOMALY": 204.5512, "EPHEMERIS_TYPE": 0, "CLASSIFICATION_TYPE": "U", "NORAD_CAT_ID": 35032, "ELEMENT_SET_NO": 999, "REV_AT_EPOCH": 87669, "BSTAR": 0.0013764232, "MEAN_MOTION_DOT": 6.609e-05, "MEAN_MOTION_DDOT": 0}, "tle": {"line1": "1 35032U 93036AGV 25346.40614877  .00006609  00000+0  13764-2 0  9994", "line2": "2 35032  73.8524   7.9202 0068402 219.3080 204.5512 14.58721339876695"}}, "geometry": {"type": "Point", "coordinates": [170.3475958539481, 41.35185034546508]}}, {"type": "Feature", "properties": {"norad_id": 35033, "name": "COSMOS 2251 DEB", "group": "cosmos-2251-debris", "lat": 48.02003258052459, "lon": -24.094497073120774, "alt_km": 726.9455059480933, "timestamp": "2025-12-13T20:38:51.403784+00:00", "meta": {"OBJECT_NAME": "COSMOS 2251 DEB", "OBJECT_ID": "1993-036AGW", "EPOCH": "2025-12-12T19:13:51.745440", "MEAN_MOTION": 14.50928801, "ECCENTRICITY": 0.00144343, "INCLINATION": 74.0257, "RA_OF_ASC_NODE": 176.4611, "ARG_OF_PERICENTER": 282.9682, "MEAN_ANOMALY": 76.9867, "EPHEMERIS_TYPE": 0, "CLASSIFICATION_TYPE": "U", "NORAD_CAT_ID": 35033, "ELEMENT_SET_NO": 999, "REV_AT_EPOCH": 65928, "BSTAR": 0.0009932764, "MEAN_MOTION_DOT": 3.902e-05, "MEAN_MOTION_DDOT": 0}, "tle": {"line1": "1 35033U 93036AGW 25346.80129335  .00003902  00000+0  99328-3 0  9993", "line2": "2 35033  74.0257 176.4611 0014434 282.9682  76.9867 14.50928801659281"}}, "geometry": {"type": "Point", "coordinates": [-24.094497073120774, 48.02003258052459]}}]}